camis,name,boro,building,street,zipcode,phone,cuisine
50134535,TAQUITO,Manhattan,96,SOUTH STREET,10038,6467624749,Mexican
50123472,ISHI,Brooklyn,70,5 AVENUE,11217,9179091935,Seafood
50143879,BLUELINE FRY PLANTAIN,Brooklyn,1610,NOSTRAND AVENUE,11226,3472405383,Caribbean
41139432,THE HAAB MEXICAN CAFE,Queens,4722,48 AVENUE,11377,7187294838,Mexican
50147179,APPLEBEE'S,Manhattan,205,WEST 50 STREET,10019,2018184669,American
41092609,10TH AVENUE COOKSHOP,Manhattan,156,10 AVENUE,10011,2129244440,American
41319774,BAR 43,Queens,43-06,43 STREET,11104,7183613090,American
41221266,THAI SON,Queens,4010,74 STREET,11373,7184766805,Southeast Asian
50004862,UP THAI,Manhattan,1411,2 AVENUE,10021,2122561188,Thai
50127720,MASALAWALA & SONS,Brooklyn,365,5 AVENUE,11215,2123738900,Indian
50137282,GOLDEN DRAGON,Brooklyn,394,METROPOLITAN AVENUE,11211,6463594855,Chinese
50040703,BEBE FRITAY,Brooklyn,826,ROGERS AVENUE,11226,7186761636,Creole
50113072,TWIN DONUTS,Bronx,3,WEST FORDHAM ROAD,10468,7186180004,American
41053236,DIZZY'S CLUB,Manhattan,10,COLUMBUS CIRCLE,10019,2122589585,American
50096074,UPCAKE SUPPLIES AND TREAT SHOP,Bronx,3511,BOSTON ROAD,10469,3472856911,Bakery Products/Desserts
50124376,HEY THAI,Manhattan,127,JOHN STREET,10038,6466504823,Thai
41017390,EUROPAN CAFE,Manhattan,672,8 AVENUE,10036,2127304442,American
50100671,SONG BO YUAN,Manhattan,36,ELDRIDGE STREET,10002,2122192228,Chinese
50099434,NOWON,Manhattan,507,EAST 6 STREET,10009,5166607858,Korean
50087667,KOREAN EXPRESS,Manhattan,807,LEXINGTON AVENUE,10065,2127550120,Korean
50040448,DUNKIN,Queens,3105,QUEENS BLVD,11101,7184826572,Donuts
50012808,CALLE DAO,Manhattan,38,WEST 39 STREET,10018,2122219002,Latin American
50002654,HOMEMADE TAQUERIA,Queens,7103,GRAND AVE,11378,7187790771,Mexican
50116136,SMART 3,Queens,16845,HILLSIDE AVE,11432,9299903996,Bangladeshi
50036496,TAQUERIA ACATLAN,Brooklyn,298,IRVING AVENUE,11237,7184562095,Mexican
41006765,DOS CAMINOS,Manhattan,675,HUDSON STREET,10014,2126992400,Mexican
50120864,TACOS AL SUADERO,Queens,3904,103RD ST,11368,7184572000,Mexican
50138139,IGAM,Brooklyn,1921,AVENUE U,11229,3476108875,Coffee/Tea
50014408,MCDONALD'S,Brooklyn,7124,3 AVENUE,11209,7184910223,Hamburgers
50013794,FUEL FEVER,Brooklyn,8615,18 AVENUE,11214,7182598448,American
50141096,SPIN,Manhattan,1626,BROADWAY,10019,6122208235,American
50013405,WAH YONG KITCHEN,Bronx,112,WEST 168 STREET,10452,7189921110,Chinese
50094746,EL VAQUERITO,Queens,5411,NORTHERN BLVD,11377,9294243323,Mexican
50117716,STIX KOSHER RESTAURANT,Queens,10115,QUEENS BLVD,11375,9178320452,Middle Eastern
50145732,KENNEDY FRIED CHICKEN,Bronx,921,PROSPECT AVENUE,10459,9176609371,Chicken
50123514,OKEY,Brooklyn,445,ALBEE SQUARE,11201,9292457636,Spanish
50130528,KNAPP ST PIZZA II,Brooklyn,261,AVENUE X,11223,7183760174,Pizza
40396231,DELMONICO GOURMET,Manhattan,375,LEXINGTON AVENUE,10017,5163697531,American
50088559,TWO BOOTS,Manhattan,42,AVENUE A,10009,2122541919,Pizza
50130717,LAS MANOS QUIETAS,Queens,4313,BROADWAY,11103,6316636936,Mexican
50124313,CAFE XOCHIMILCO,Queens,3801,29TH ST,11101,9293283573,Spanish
41436019,TAQUERIA EL FOGON,Brooklyn,1050,FLUSHING AVENUE,11237,7184977445,Mexican
50062884,MEKONG BK,Brooklyn,250,DEKALB AVENUE,11205,3479873712,Southeast Asian
50120704,LITTLE GIO'S PIZZA,Manhattan,26,1 AVENUE,10009,2124778020,Pizza
41471993,NEW MEI MEI CHINESE RESTAURANT,Brooklyn,3566,NOSTRAND AVENUE,11229,7187431054,Chinese
50035574,BREAD & BUTTER,Manhattan,303,5 AVENUE,10016,2124480444,American
41698701,CURRY KING,Manhattan,942,COLUMBUS AVENUE,10025,6466697826,Pakistani
50077505,KIN'D,Queens,19203,UNION TPKE,11366,7184680888,Thai
41172425,EL POLLO RESTAURANT AND BAR,Staten Island,558560,RICHMOND ROAD,,7188154928,Latin American
50067032,TAQUERIA ON TENTH,Manhattan,,10TH AVE,10001,2126958080,American
50090750,NB WING WONG,Manhattan,42,BOWERY,10013,6464907468,Chinese
50060498,AROQA,Manhattan,206,9 AVENUE,10011,6466785471,Indian
50111235,BLVD DINER,Queens,4311,QUEENS BLVD,11104,7188061499,American
50045110,EMPLOYEE FEEDING,Manhattan,4,PENN PLZ,10121,2124656273,American
50164696,BAGELS AND CREAM,Manhattan,924,AMSTERDAM AVENUE,10025,2035455266,American
50073616,OVEN GRILL CHILL LOUNGE,Queens,4212,BROADWAY,11103,9173964249,Mexican
50048225,TOUS LES JOURS,Manhattan,31,WEST 32 STREET,10001,2129679661,Bakery Products/Desserts
50062743,BULBAP GRILL,Brooklyn,646,MANHATTAN AVENUE,11222,7183833663,Korean
50067421,PRECIOUS ISLAND TEA SHOP,Staten Island,366,NEW DORP LANE,10306,7186682700,Chinese
50094921,NEW DRAGON,Manhattan,2413A,2 AVENUE,10035,2124271786,Chinese
50110728,THAI ROS THIP,Brooklyn,664,KNICKERBOCKER AVENUE,11221,9292941919,Thai
50137610,MARI:NE,Manhattan,135,WEST 41 STREET,10036,2018931848,Korean
50143605,NEPALI MOMO CAFE,Queens,7418,37TH RD,11372,3477384199,Asian/Asian Fusion
50072375,NORA THAI,Brooklyn,176,NORTH 9 STREET,11211,7183021599,Thai
50033770,TASTY AND CO,Queens,9419,63RD DR,11374,7188972288,Chinese/Japanese
50105437,SWEETGREEN,Manhattan,1740,BROADWAY,10019,9176871157,Salads
50169439,LIOPO PICA POLLO,Bronx,744,EAST TREMONT AVENUE,10457,3475005636,Mexican
50156262,DONER HAUS,Queens,3115,30TH AVE,11102,6467849478,German
50113656,FLOWER DRUM HOUSE,Queens,2921,ASTORIA BLVD,11102,7189165594,Chinese
50133208,DRAGON STAR,Bronx,670,EAST 233 STREET,10466,7183255564,Chinese
50119429,MAE MAE CAFE,Bronx,2417,3 AVENUE,10451,9179367969,Vegetarian
50128391,NEW TOMO JAPANESE CUISINE,Queens,8612A,37TH AVE,11372,7182056222,Japanese
41704736,SUBWAY,Queens,3711,35 AVENUE,11101,7184334060,Sandwiches
41612260,TROPICAL RESTAURANT,Queens,88-18/20,JAMAICA AVENUE,11421,7188468816,Mediterranean
40395343,FELIX,Manhattan,340,WEST BROADWAY,10013,2124310021,French
50011918,BELLA DONNA PIZZA,Queens,6091,54TH ST,11378,7184971744,Pizza
40962335,THE SOUL SPOT,Brooklyn,302,ATLANTIC AVENUE,11201,7185969933,Soul Food
50132255,THE CHUBBY CRAB,Manhattan,77,CHRYSTIE STREET,10002,6468478239,Seafood
50125236,THINK COFFEE,Manhattan,246,5 AVENUE,10001,9176922571,American
41250498,NO. 1 CHINESE RESTAURANT,Bronx,7,WEST TREMONT AVENUE,10453,7182945294,Chinese
50133003,WAI PO REN JIA,Queens,13677,41ST AVE,11355,7189390008,Chinese
50115431,RED PIPES CAFE,Queens,7160,AUSTIN ST,11375,7183743436,Coffee/Tea
50105992,DOSA DELIGHT,Queens,3566,73RD ST,11372,7183971000,Indian
50058155,COCINA LATINA,Manhattan,4986,BROADWAY,10034,2125442223,Latin American
50012822,NOCHES DE COLUMBIA,Queens,7102,KISSENA BLVD,11367,7182686352,Latin American
50107563,CHICKN ROTONDA,Queens,6458,DRY HARBOR RD,11379,9294132645,Filipino
50128210,KALYE,Manhattan,251,BROOME STREET,10002,6467994651,Filipino
41595491,JOLOFF,Brooklyn,1168,BEDFORD AVENUE,11216,7182300523,African
41713066,KASHKAVAL GARDEN,Manhattan,852,9 AVENUE,10019,2122451758,Mediterranean
50089281,CHAMA MAMA,Manhattan,147-149,W 14TH ST,10011,6466102815,Middle Eastern
50005277,PIZZA VINO,Queens,,JFK INTERNATIONAL AIRPORT,11430,9292250815,Pizza
50106152,CHARM BAR,Brooklyn,448,DEAN STREET,11217,6462266232,Caribbean
50128784,SUBWAY,Queens,6979,GRAND AVE,11378,9179292932,Sandwiches
50057959,FIVE BOROUGH FOOD HALL,Queens,,JFK INTERNATIONAL AIRPORT,11430,34788000,Other
50117478,SUNSET BAGELS,Brooklyn,8624,5 AVENUE,11209,7188228233,American
50142575,CAMP CAMP BBQ,Queens,14226,ROOSEVELT AVE,11354,7187990799,Chinese
50131460,IT-ITALIAN TRATTORIA,Manhattan,530,7 AVENUE,10018,9174190465,Italian
50145527,KUM KAU RESTAURANT,Brooklyn,463,MYRTLE AVENUE,11205,2039105932,Chinese
41406255,"TACO BELL, KFC",Manhattan,3645,BROADWAY,10031,2124919151,Chicken
50130631,Yong Sheng Garden Chinese Restaurant,Manhattan,2825,FRDRK DGLSS BLVD,,2128622702,Chinese
50164695,DARJEELING KITCHEN & CAFE,Queens,3112,36TH AVE,11106,9172159407,Asian/Asian Fusion
50134432,NANA'S KITCHEN,Queens,9001,31ST AVE,11369,2128378494,Latin American
50074402,MEGUMI,Brooklyn,5102,AVENUE U,11234,9084321527,Chinese
50123497,EAT & BITE,Queens,17951,HILLSIDE AVE,11432,8608051462,Chicken
50016803,HUA RONG,Queens,8323,BROADWAY,11373,7187601027,Chinese
50148333,YGF MALATANG,Manhattan,92,3 AVENUE,10003,6468608838,Chinese
41385076,TEN TAN,Bronx,3507,DEKALB AVENUE,10467,7182318883,Chinese
50087949,GOOD TASTE GARDEN,Bronx,863,EAST 149 STREET,10455,7189939367,Chinese
50142911,PATIS BAKERY,Brooklyn,266,KINGSTON AVENUE,11213,2127489364,Jewish/Kosher
40370939,MANDUCATIS,Queens,13-27,JACKSON AVENUE,11101,7187294602,Italian
41368950,GOTHAM PIZZA,Manhattan,144,9 AVENUE,10011,2129898858,Pizza
41580023,SAGE,Brooklyn,299301,GRAHAM AVENUE,,7182186644,Thai
50138708,FU LAI,Brooklyn,7023,FORT HAMILTON PARKWAY,11228,7186667796,Chinese
50112864,YUM BAO,Brooklyn,5103,8 AVENUE,11220,9177838889,Chinese
50054381,JUPIOCA,Brooklyn,278B,WYCKOFF AVE,11237,9179826111,"Juice, Smoothies, Fruit Salads"
50085703,XIN XING RESTAURANT,Bronx,1520,METROPOLITAN AVENUE,10462,7187926868,Chinese
50109264,BEST DELI,Queens,14745,182ND ST,11413,7188694668,American
50106096,BUSHWICK BURGER,Brooklyn,354,CORNELIA STREET,11237,7189750224,American
50156286,SILVER PALACE RESTAURANT,Manhattan,1430,SAINT NICHOLAS AVENUE,10033,6466969582,Chinese
50163138,CAFE 77,Manhattan,2,WEST 77 STREET,10024,3472652562,Sandwiches/Salads/Mixed Buffet
50065875,COLD STONE CREAMERY,Brooklyn,3165,HARKNESS AVENUE,11235,7188911114,Frozen Desserts
50048806,WIN SON,Brooklyn,159,GRAHAM AVENUE,11206,3474576010,Asian/Asian Fusion
50033380,TEA AND MILK,Queens,3202,34TH AVE,11106,9174980618,Coffee/Tea
50163507,QKO,Manhattan,447,BROADWAY,10013,9177700699,Asian/Asian Fusion
50133645,KOO THAI,Manhattan,1758,1 AVENUE,10128,6464904608,Thai
50035310,DANTE,Manhattan,79-81,MACDOUGAL ST,10012,2129825275,Italian
50104311,LAUGHING MAN CAFE,Manhattan,184,DUANE STREET,10013,9175976871,American
50006236,FRENCH LOUIE,Brooklyn,320,ATLANTIC AVENUE,11201,7189351200,French
50166451,THE PADDOCK,Bronx,4315,KATONAH AVENUE,10470,9144107216,Irish
40998515,HEARTH,Manhattan,403,EAST 12 STREET,10009,6466021300,American
50129636,BISOU,Manhattan,112,6TH AVE,10013,9173063808,French
40393395,COURT SQUARE DINER,Queens,4530,23 STREET,11101,7183921222,American
50132272,TIGER SUGAR,Manhattan,129,EAST 45 STREET,10017,9173883700,Coffee/Tea
50071494,MISC,Brooklyn,758,FRANKLIN AVENUE,11238,3476634020,Thai
50143283,APARTMENT 7B DELI & MARKET,Queens,JFK,INTL AIRPORT,11430,7037237264,American
41705732,BENTON SUSHI,Manhattan,156,EAST 45 STREET,10017,2129229788,Japanese
50139167,CARNATION RESTAURANT,Brooklyn,2310,86 STREET,11214,7182101780,Chinese
50008233,MERRY LAND BUFFET,Bronx,325,EAST 149 STREET,10451,7189933608,Chinese
50088789,SUBWAY,Queens,25310,HILLSIDE AVE,11426,9173254394,Sandwiches
50116822,NEW GARDEN,Bronx,1535,WESTCHESTER AVENUE,10472,7189913384,Chinese
40378827,KOSHER HUT OF BROOKLYN,Brooklyn,709,KINGS HIGHWAY,11223,7183768996,Jewish/Kosher
40868400,ARIANA KEBAB HOUSE,Manhattan,787,9 AVENUE,10019,2122622323,Afghan
50148675,ASAP SNACK BAR,Bronx,909,SHERIDAN AVENUE,10451,9293719017,American
50133211,MESIBA,Brooklyn,353,BEDFORD AVENUE,11211,9176220524,Mediterranean
40376142,LUSARDI'S RESTAURANT,Manhattan,1494,SECOND AVENUE,10075,2122492020,Italian
50129596,FIESTA MEXICANA RESTAURANT,Queens,5828,ROOSEVELT AVE,11377,9175597634,Mexican
41454244,COSTA VERDE,Queens,9459,CORONA AVENUE,11373,7182710900,Peruvian
50141172,QUALITY GREENS KITCHEN,Bronx,57,WILLOUGHBY ST,,2013703457,Salads
40738177,LA CABANA,Queens,3917,103 STREET,11368,7188987593,Latin American
50170491,MAY WAH PORK CHOP FAST FOOD,Manhattan,190,HESTER STREET,10013,2129256776,Chinese
50129377,TORTILLAS KING,Brooklyn,7103,18 AVENUE,11204,9177532833,Tex-Mex
50039988,TATAKI,Manhattan,3,LISPENARD STREET,10013,2129650975,Japanese
41554263,POPEYES,Queens,19702,HILLSIDE AVENUE,11423,7184643636,Chicken
50104534,SAJHOMA RESTAURANT 3,Brooklyn,941,BROADWAY,11206,7184430243,Spanish
41709587,PEACHES GRAND,Brooklyn,4143,CLIFTON PLACE,,7186389500,Seafood
50104703,BROOKLYN DINER,Queens,HH4L-332,TERM B LAGUARDIA RD,11371,3476478336,American
50079292,CANAS RESTAURANT AND BAR,Queens,14407,JAMAICA AVE,11435,9292447267,Latin American
50101946,PALENQUE COLOMBIAN FOOD,Brooklyn,298,GRAHAM AVENUE,11211,7189541955,Spanish
41063300,CENTRE PIZZA,Queens,25425,HORACE HARDING EXPRESS,,7182299879,Italian
41184659,LA CASA DEL MOFONGO,Manhattan,14471451,SAINT NICHOLAS AVENUE,,2127401200,Latin American
40372445,OMONIA CAFE,Queens,3220,BROADWAY,11106,7182746650,Greek
41495141,EL CERRITO RESTAURANT,Bronx,11841186,ELDER AVENUE,,7183288553,Mexican
41309636,LONA PIZZA,Bronx,373,EAST 204 STREET,10467,7186556600,Pizza
50085967,DUNKIN',Manhattan,815,10 AVENUE,10019,6468667462,Donuts
50128998,TROPICAL SMOOTHIE CAFE,Queens,3149,STEINWAY ST,11103,3476491920,"Juice, Smoothies, Fruit Salads"
40396548,PUGSLEY PIZZA,Bronx,590,EAST 191 STREET,10458,7183650327,Pizza
50126094,CANAAN BAKERY & CAFE,Queens,3640,UNION ST,11354,7184606094,Bakery Products/Desserts
50035091,MIXTAPE,Brooklyn,1533,MYRTLE AVENUE,11237,6467220838,American
50059581,COCORON,Manhattan,16,DELANCEY STREET,10002,2124771212,Japanese
50086994,WING STOP,Brooklyn,284,BROADWAY,11211,9292079464,Chicken
40979519,DIAMOND CLUB,Bronx,673,HUNTS POINT AVENUE,10474,7188934466,Bottled Beverages
40402893,COLUMBUS CITIZENS FOUNDATION,Manhattan,8,EAST 69 STREET,10021,2122499923,Italian
50060917,21ST LIC DELI & GROCERY,Queens,4344,21ST ST,11101,7187862484,American
50086327,ETC.,Manhattan,20,EAST 46 STREET,10017,2126971201,American
50135173,HALAL BRO'S GRILL,Brooklyn,286,UTICA AVENUE,11213,3479930857,Mediterranean
50145538,BEST WOK NO1,Brooklyn,3411A,AVENUE H,,7184349785,Chinese
41391456,CAFE REBAY,Manhattan,1071,5 AVENUE,10128,2124275690,American
40538766,RED EYE GRILL,Manhattan,888,7 AVENUE,10106,2125419000,American
50152644,CHAR SIU BAO BAKERY,Queens,25307,NORTHERN BLVD,11362,7183169767,Korean
50145449,STARBUCKS COFFEE,Brooklyn,1520,AVENUE J,11230,7187707962,Coffee/Tea
50074621,HANG HOT POT,Queens,133-35,ROOSEVELT AVENUE,11354,3473686735,Chinese
50106165,DAVID'S BRISKET HOUSE,Brooklyn,533,NOSTRAND AVENUE,11216,7187891155,Sandwiches
50002628,KFC,Bronx,5625,BROADWAY,10463,7186010582,American
50139274,DUNKIN',Brooklyn,4801,KINGS HIGHWAY,11234,5087686205,Coffee/Tea
50000338,ZORALIE,Manhattan,449,WEST 51 STREET,10019,6465903751,Caribbean
41656924,TENZAN,Manhattan,988990,2 AVENUE,,2129805900,Japanese
41277451,MARKET TABLE,Manhattan,54,CARMINE STREET,10014,2122552100,American
50049514,BRASS RIZ & GRILL EXPRESS,Queens,227-02/08,LINDEN BLVD,,9175570106,Creole
50123411,STUFFED ICE CREAM,Brooklyn,6805,BAY PARKWAY,11204,6464575651,American
41577737,COULEUR CAFE,Brooklyn,435,7 AVENUE,11215,7187886600,Coffee/Tea
50113425,PIZZA MIA,Staten Island,529,TOMPKINS AVENUE,10305,7187201212,Pizza
50114059,2M DELI,Bronx,315,ALEXANDER AVENUE,10454,7182921112,Latin American
50088464,ANDA CAFE,Queens,6002,MAIN ST,11355,9179080026,Chinese/Japanese
50038120,SHUN WON FLUSHING,Queens,4127,MAIN ST,11355,7184606118,Chinese
40396159,CARMINE'S,Manhattan,200,WEST 44 STREET,10036,2122213800,Italian
50047854,TAKUMEN,Queens,550,50TH AVE,11101,7183617973,Japanese
50066146,PINK FOREST,Queens,7201,AUSTIN ST,11375,6462878862,Coffee/Tea
40365525,DONUT PUB,Manhattan,203,WEST 14 STREET,10011,2129290126,Donuts
50123250,VERS,Manhattan,714,9 AVENUE,10019,9172949562,American
50076009,CHARLIE'S PLACE,Manhattan,1960,MADISON AVENUE,10035,2124100277,Japanese
50124022,BUNNAN,Brooklyn,2123,CATON AVENUE,11226,6464894120,Caribbean
50112047,RECETTE,Brooklyn,103,HAVEMEYER STREET,11211,9178254641,French
50133760,GREENWICH & DELANCEY NYC,Manhattan,50,WEST STREET,10006,2123003013,Jewish/Kosher
40659101,LUCKY HOUSE CHINESE KITCHEN,Brooklyn,343345,LEWIS AVENUE,,7184432298,Chinese
50139187,MAMA COCO,Queens,3812,30TH AVE,11103,3475070277,Mexican
50150810,WINGATE BY WYNDHAM LONG ISLAND CITY,Queens,3870,12TH ST,11101,3478704209,Continental
40877741,J'S PIZZA,Manhattan,98,7 AVENUE,10011,2129299007,Pizza
50118860,PIZZA TOWN,Manhattan,234,CANAL STREET,10013,9178876012,Pizza
41503108,TULCINGO RESTAURANT,Queens,40364040,NATIONAL STREET,,7186398880,Mexican
50058475,YI MIN RESTAURANT,Brooklyn,3821,FORT HAMILTON PARKWAY,11218,7186336723,Chinese
41632521,PIZZA DADDY,Brooklyn,6422,BAY PARKWAY,11204,7182597300,Italian
50145566,JAVITRI,Manhattan,132,EAST 61 STREET,10065,2122067575,Indian
50119444,MAHSIL,Queens,4007,150TH ST,11354,7184608989,Korean
50118265,ANDA BOBA TEA,Queens,6115,SPRINGFIELD BLVD,11364,6465251432,Coffee/Tea
50158841,FASTLIFE PIZZA,Brooklyn,995A,FULTON STREET,11238,5165786892,Pizza
50127870,UMI,Queens,22018,HILLSIDE AVE,11427,7184682100,Seafood
50117697,SWEET WONTON HOUSE,Queens,25325,NORTHERN BLVD,11362,7188198391,Chinese
50115409,SHAKING CRAB,Brooklyn,1045,FLUSHING AVENUE,11237,3477253262,Seafood
50144094,JAMROCK BISTRO,Brooklyn,2315,STRAUSS STREET,11212,7186122956,Caribbean
50129949,NEW JOY GARDEN,Brooklyn,482,RIVERDALE AVENUE,11207,7183852288,Chinese
50064910,GOLDEN PALACE,Bronx,1455,UNIONPORT ROAD,10462,3478980796,Bangladeshi
41657465,NAN BEI HO,Queens,21222,48 AVENUE,11364,7183571838,Chinese
50008640,CARIDAD RESTAURANT,Bronx,135,WEST KINGSBRIDGE ROAD,10468,7186017660,Latin American
50143667,LA NUEVA 90 BAKERY,Queens,3706,90TH ST,11372,9176514591,Latin American
50130048,BURGER QUEENS,Queens,9619,23RD AVE,11369,9175353874,American
50042777,NABAYA AFRICAN AMERICAN RESTUARANT,Bronx,860,MELROSE AVENUE,10451,7184012283,African
41479962,CHOCOLAT,Manhattan,2217,FREDERICK DOUGLASS BOULEVARD,,2122224545,American
50045112,GARDEN PUB,Manhattan,4,PENN PLZ,10121,2124656302,American
50103384,CHOCOLATE DIP,Manhattan,101,MACDOUGAL STREET,10012,4159904154,Bakery Products/Desserts
50001785,LA LUNA CAFE,Queens,44-01,30 AVENUE,11103,3477445100,American
50141753,CHIKURIN,Brooklyn,2362,86 STREET,11214,7183330811,Japanese
50106663,REG'Z NEW YORK PIZZA,Queens,2817,36TH AVE,11106,3473456201,Pizza
50147491,LA CASA DE CHICHARRON,Queens,10650,SUTPHIN BLVD,11435,7579478092,Spanish
50126243,TAIWAN STATION,Brooklyn,5510,7 AVENUE,11220,7184153925,Asian/Asian Fusion
41563537,BENITO ONE,Manhattan,174,MULBERRY STREET,10013,2122269171,Italian
40734589,THE GREEK KITCHEN,Manhattan,889,10 AVENUE,10019,2125814300,Greek
41543813,SERGIMMO SALUMERIA,Manhattan,456,9 AVENUE,10018,2129674212,Italian
50108113,KAUSA,Manhattan,745,9 AVENUE,10019,6465970651,Peruvian
40380164,CUCHIFRITOS,Bronx,158,E. 188 TH ST,,7183674500,Spanish
50144551,DIN'S KITCHEN,Brooklyn,5210,7 AVENUE,11220,3479874596,Chinese
41048074,GLATT ALA CARTE,Brooklyn,5123,18 AVENUE,11204,7184386675,Jewish/Kosher
41552525,MELTING POT CUISINE,Queens,36-01,VERNON BOULEVARD,11106,7186062670,Caribbean
50100674,OKOZUSHI,Brooklyn,376,GRAHAM AVENUE,11211,2017395301,Japanese
50097510,THE UPPER CRUST,Queens,6711,MAIN ST,11367,5162471915,Jewish/Kosher
50066744,THIP OSHA,Brooklyn,795,GRAND STREET,11211,7183887787,Thai
50094704,LISA'S DUMPLINGS,Manhattan,1000S,8 AVENUE,10019,9179941815,Chinese
50001215,BYUNG CHUN SOON DAE,Queens,15603,NORTHERN BLVD,11354,7184601044,Korean
50059605,THE KING OF TACOS,Queens,9017,31ST AVE,11369,7184240299,Tex-Mex
50044630,"HOT DOG CONCESSION, GARDEN MARKET",Manhattan,4,PENN PLZ,10121,2124656302,American
41692397,LA BELLA VITA,Manhattan,163,MULBERRY STREET,10013,2127758484,Italian
50121366,DOMINO'S,Brooklyn,146,SMITH STREET,11201,7185967000,Pizza
41549333,SATI'S ROTI SHOP,Queens,13317,ROCKAWAY BOULEVARD,11420,7186412861,Caribbean
50164622,CHEF'S HALAL GRILL,Brooklyn,1276,FULTON STREET,11216,7188096909,Middle Eastern
50145558,EL REY DE QUISQUEYA,Brooklyn,1310,BROADWAY,11221,3478570584,Spanish
41280375,PANERA BREAD,Queens,3801,35 AVENUE,11101,7189374740,American
50106776,EMILIO'S,Bronx,1051,MORRIS PARK AVENUE,10461,7188226758,Pizza
41457674,FIVE GUYS,Manhattan,690,3 AVENUE,10017,6467835060,Hamburgers
50048053,HUSKY-P MEALS DIRECT,Queens,18417,140TH AVE,11413,7185251161,Caribbean
41194024,HUMMUS PLACE,Manhattan,305,AMSTERDAM AVENUE,10023,2127993335,Middle Eastern
50148558,D.T RESTAURANT,Queens,133-35,ROOSEVELT AVENUE,11354,6467045131,Chinese
41620241,THE COMMONS CHELSEA,Manhattan,128,7 AVENUE,10011,2129299333,Coffee/Tea
50055936,ZABB PUTAWN,Manhattan,1584,1 AVENUE,10028,2129888800,Thai
41017770,GRAZIELLA'S,Brooklyn,232,VANDERBILT AVENUE,11205,7187895663,Italian
50139556,FOOD KING,Manhattan,694,10 AVENUE,10019,2123076701,Chinese
50065695,MR. Q'S,Bronx,2115,WILLIAMSBRIDGE ROAD,10461,7188232424,Chinese
50045328,NO. 1 CHINESE RESTAURANT,Bronx,3004,EASTCHESTER ROAD,10469,7183796197,Chinese
50160910,INDIGO COFFEE CO,Manhattan,769,6 AVENUE,10010,2019365625,Coffee/Tea
50097040,TWO BOOTS WEST VILLAGE,Manhattan,101,7 AVENUE SOUTH,10014,6468632668,Pizza
50067605,DACTA BIRD,Brooklyn,1553,RALPH AVENUE,11236,3477029106,Caribbean
50105594,HIBISCUS BREW,Brooklyn,546,FLATBUSH AVENUE,11225,3478243537,Coffee/Tea
41645673,69 PIZZERIA,Queens,4917,69TH ST,11377,7188988899,Pizza
50039083,PATSY'S PIZZERIA,Manhattan,2289,1 AVENUE,10035,2125349783,Italian
50093481,STONE STREET COFFEE SOHO,Manhattan,379,BROOME STREET,10013,9174554049,Coffee/Tea
50114664,BETWEEN THE BAGEL NY,Queens,3113,30TH AVE,11102,7189321425,Bagels/Pretzels
50114100,LENNYS PIZZERIA,Brooklyn,1046,NOSTRAND AVENUE,11225,7183632323,Pizza
50005068,JALAPENO KING,Brooklyn,719,5 AVENUE,11215,3479873777,Tex-Mex
50131273,YUMMY 88,Brooklyn,130,WILSON AVENUE,11237,7189287777,Chinese/Cuban
50066707,SZECHUAN DELIGHT,Brooklyn,152,7 AVENUE,11215,7187885408,Chinese
50164292,FORTUNE PLACE,Brooklyn,286,BROADWAY,11211,9295958744,Chinese
50118137,DRAGON SUSHI,Manhattan,1272,AMSTERDAM AVENUE,10027,6462038419,Japanese
50008164,EL BARRIO BURRITOS,Brooklyn,796A,FRANKLIN AVENUE,11238,7185766611,Mexican
50011586,EASTERN CHINESE RESTAURANT,Queens,2105,BROADWAY,11106,7182787333,Chinese
40383281,GABY'S PIZZA,Queens,20423,HILLSIDE AVENUE,11423,7187409716,Pizza
50008666,DELEON BAKERY & RESTAURANT,Queens,1858,CORNAGA AVE,11691,5162330098,Spanish
50044531,BD STAR PIZZA,Manhattan,91,AVENUE A,10009,2125051200,Pizza
50112608,CAFE ROUND K,Manhattan,78,CANAL STREET,10002,3474711601,Coffee/Tea
50082492,STUART CINEMA & CAFE,Brooklyn,79,WEST STREET,11222,9179917556,American
50128607,TANGY NOODLE,Manhattan,98,8 AVENUE,10011,6464272799,Chinese
50072605,BORAN THAI CUISINE,Brooklyn,462,COURT STREET,11231,7184900207,Thai
41665255,MCHALE'S BAR & GRILL,Manhattan,251,WEST 51 STREET,10019,2129575138,Irish
50135417,MIKES PIZZERIA,Queens,7175,YELLOWSTONE BLVD,11375,7187933464,Pizza
50159766,DUBAI PIZZA & GYRO,Brooklyn,1258,FLATBUSH AVENUE,11226,6467490555,Pizza
50008496,LAND-O-FUN,Brooklyn,2955,CONEY ISLAND AVENUE,11235,9172796405,American
40399174,GIGINO TRATTORIA,Manhattan,323,GREENWICH STREET,10013,2124311112,Italian
40954991,STAR ON 18TH DINER CAFE,Manhattan,128,10 AVENUE,10011,2123660994,American
41700337,SUNSHINE RESTAURANT,Queens,7310,NORTHERN BOULEVARD,11372,5167373878,Pakistani
50134501,WENDY'S,Manhattan,24,WEST 23 STREET,10010,5169835184,American
50121689,BELLA ITALY PIZZA,Bronx,1941,SOUTHERN BOULEVARD,10460,7183789577,Pizza
50087453,T & T RESTAURANT,Queens,4611A,KISSENA BLVD,11355,7186610819,Chinese
41636015,BOBWHITE COUNTER.,Manhattan,94,AVENUE C,10009,2122282972,Soul Food
50110727,TAQUERIA AL PASTOR,Brooklyn,128,WYCKOFF AVENUE,11237,7184567696,Mexican
50138450,CHAMPION PIZZA,Queens,2236A,31ST ST,11105,3476124739,Pizza
50105651,$1.50 FRESH PIZZA & HOT DOG,Manhattan,131,AVENUE A,10009,6464093489,Pizza
50040217,AFRICA KINE,Manhattan,2267,ADAM CLAYTON POWELL JR BOULEVARD,,2126669400,African
50084598,TABETOMO,Manhattan,131,AVENUE A,10009,9176369223,Japanese
50143698,MING WEI XUAN,Queens,4052,MAIN ST,11354,3476347856,Chinese
50050042,SUBWAY,Brooklyn,3102,AVENUE U,11229,7183681217,Sandwiches
50130040,ANKARA #3,Manhattan,181,EAST HOUSTON STREET,10002,2124731212,Turkish
41574650,TROPICAL JERK,Queens,21795,HEMPSTEAD AVENUE,11429,7187366500,Caribbean
50146853,CAFE LOUNGE,Brooklyn,210,KINGS HWY,11223,7182000632,Coffee/Tea
50103653,BEANSTALK CAFE,Queens,1333,JACKSON AVE,11101,6465259520,Sandwiches/Salads/Mixed Buffet
41688132,SWEETS BAR,Brooklyn,620,ATLANTIC AVENUE,11217,9176186310,Bottled Beverages
40387861,WESTWAY DINER,Manhattan,614,9 AVENUE,10036,2125827661,American
50125911,CHINA GOURMET,Queens,24515,FRANCIS LEWIS BLVD,11422,9173623698,Chinese
41344229,GRACE PIZZA,Queens,7005,MYRTLE AVENUE,11385,7184176018,Pizza
50129862,NEW GARDEN,Brooklyn,7120,13 AVENUE,11228,9173269382,Chinese
41668282,ROSEMARY'S,Manhattan,1820,GREENWICH AVENUE,,2126471818,Italian
50046281,CHINA DRAGON,Brooklyn,2182,CLARENDON ROAD,11226,7188569015,Chinese
50118176,YOZI,Brooklyn,5805,8 AVENUE,11220,7188668888,Chinese
41688146,FUKU,Brooklyn,620,ATLANTIC AVENUE,11217,9174174384,American
50137120,CHEVRE D'OR,Brooklyn,1917,AVENUE U,11229,7189348888,Middle Eastern
41317177,SOCCER TAVERN,Brooklyn,6004,8 AVENUE,11220,7184399336,Irish
41396554,NEW THRIVING RESTAURANT,Queens,12012,LIBERTY AVENUE,11419,7188358888,Chinese
50141338,SARAN ROM,Queens,8110,BROADWAY,11373,3478080545,Thai
50075543,FOO HING KITCHEN,Bronx,2706,3 AVENUE,10454,7186657593,Chinese
50144098,PETISCO BRAZUCA,Manhattan,100,PEARL STREET,10004,6314826603,Brazilian
50170993,APPLEBEE'S NEIGHBORHOOD GRILL & BAR,Brooklyn,2505,EMMONS AVENUE,11235,7187694889,American
50000473,JUAN BAR,Queens,96-15D,ROOSEVELT AVENUE,11368,7184240999,Mexican
50132527,ASHOKA GRILL,Brooklyn,1436,FLATBUSH AVENUE,11210,3478498081,Indian
50139024,KIKU ASIAN BISTRO,Brooklyn,2,LINCOLN PLACE,11217,7186383366,Japanese
50128628,SWEET RICE,Queens,8021,MYRTLE AVE,11385,7183661976,Chinese
50115485,DRAGON KING RESTAURANT,Brooklyn,1078,NOSTRAND AVENUE,11225,6319035555,Chinese
41359575,VANILLA CAFE,Queens,8701,ROOSEVELT AVENUE,11372,7185070807,Latin American
50111463,Taco Mahal,Manhattan,653,9 AVENUE,10036,6464905782,Indian
50016457,ACADEMY CAFE,Queens,3029,COLLEGE POINT BLVD,11354,9173853856,American
50108576,COCOA BEAN JUICE AND SALAD BAR,Brooklyn,1510,NOSTRAND AVENUE,11226,9148434241,Caribbean
50107156,HUDSON TABLE,Brooklyn,88,WITHERS STREET,11211,5514271610,American
50104702,NOSTRAND INN,Brooklyn,1285,NOSTRAND AVENUE,11226,3473053086,American
50126220,HARLEM CAFE,Manhattan,2259,ADAM CLAYTON POWELL JR BOULEVARD,,3472329231,American
50150508,AUTHENTIC ECUADORIAN CUISINE,Queens,913,WYCKOFF AVENUE,11385,3472277193,Latin American
50105567,No.1 RESTAURANT,Queens,10614,NORTHERN BLVD,11368,7184781817,Chinese
40958354,DELMAR PIZZERIA,Brooklyn,1668,SHEEPSHEAD BAY ROAD,11235,7187697766,Pizza
50056980,FAZIO'S,Brooklyn,709,KNICKERBOCKER AVE,11221,3475293222,Pizza
40423403,LA DELICE PASTRY SHOP,Manhattan,372,3 AVENUE,10016,2125324409,Bakery Products/Desserts
50008955,YOPPARAI,Manhattan,49,CLINTON STREET,10002,2127777253,Japanese
50108893,LIFE CAFE,Manhattan,60,WEST 23 STREET,10010,2123818900,Other
41454419,JEUN JU KOREAN RESTAURANT,Queens,4011,150 STREET,11354,7189390434,Korean
50120682,NAYA,Manhattan,54,WEST 56 STREET,10019,2019235196,Mediterranean
50101559,GEORGIA RESTAURANT,Brooklyn,1926,BATH AVENUE,11214,7186848855,Eastern European
50137037,NAN XIANG EXPRESS,Brooklyn,167,GRAND STREET,11249,3477991078,Chinese
50044598,HOT DOG CONCESSION,Manhattan,4,PENN PLZ,10121,2124656273,Hotdogs/Pretzels
50116944,B & D HALAL FOOD,Manhattan,263,WEST 30 STREET,10001,2122687602,African
40837042,MALECON RESTAURANT,Bronx,55925594,BROADWAY,,7184325155,Latin American
50117962,EL RANCHERO,Queens,16020,46TH AVE,11358,7183218429,Mexican
50076227,WO HOP KITCHEN,Brooklyn,3150,FULTON STREET,11208,7182353081,Chinese
50009989,JUST SALAD,Manhattan,325,HUDSON ST,10013,3472235353,Salads
50083891,BEARD PAPA'S MIDTOWN,Manhattan,239,EAST 53 STREET,10022,7186834781,Coffee/Tea
50117415,SOULKOFA,Brooklyn,235,RALPH AVENUE,11233,9179662476,Vegan
50109923,23 GRAND,Manhattan,23,GRAND STREET,10013,2124652000,American
40865946,BLUE FIN,Manhattan,1567,BROADWAY,10036,2129181400,Seafood
50135815,Generations,Bronx,1225,JEROME AVE,10452,3478620309,Fusion
41600223,FLAVA II,Brooklyn,334,NEW LOTS AVENUE,11207,7186490016,Caribbean
50073091,EM VIETNAMESE,Brooklyn,1702,86 STREET,11214,7182323888,Southeast Asian
50040265,JERK PAN KUSINE,Queens,11302,SPRINGFIELD BLVD,11429,7184643555,Caribbean
50034573,TAQUERIA EL PATRON MEXICAN GRILL,Brooklyn,51,LINCOLN ROAD,11225,9178938733,Mexican
50095108,DUNKIN',Manhattan,58B,FULTON STREET,10038,2123232902,Coffee/Tea
50127351,KYURAMEN / TBAAR,Manhattan,2785,BROADWAY,10025,3477986479,Japanese
50087764,WIN HOU,Queens,8221,153RD AVE,11414,7188488436,Chinese
50000113,TU CACHAPA,Manhattan,4195,BROADWAY,10033,2125687575,Spanish
41623174,NEW CHAMPION WOK,Queens,1039,41 AVENUE,11101,7183615881,Chinese
50073108,AREPALICIOUS,Queens,13720,CROSSBAY BLVD,11417,7184806049,Spanish
50129944,TWO BROTHERS FISH & CHIPS,Brooklyn,896,BROADWAY,11206,7184898386,Caribbean
41022989,MULBERRY STREET BAR,Manhattan,176 1/2,MULBERRY STREET,10013,2122269345,Pizza
50135628,CROWN CHICKEN & PIZZA,Brooklyn,10309,GLENWOOD ROAD,11236,7184844897,Pizza
50122846,IPIZZANY,Manhattan,621,2 AVENUE,10016,6465967071,Pizza
40397574,DOMINICK'S BAR & RESTAURANT,Bronx,2335,ARTHUR AVENUE,10458,7187332807,Italian
50135594,GOOD HOPE,Brooklyn,711,FLATBUSH AVENUE,11225,3472406221,Caribbean
50109434,LOS PRIMOS,Bronx,698,ALLERTON AVENUE,10467,3474495680,Mexican
50081136,THE BUREN,Brooklyn,1223,BROADWAY,11221,7186843023,Coffee/Tea
50128581,NOODLE PUDDING,Brooklyn,38,HENRY STREET,11201,2014101296,Italian
50141699,FRESH PIZZA & DELI,Manhattan,876,6 AVENUE,10001,2127797498,Pizza
50156861,WONDER,Manhattan,5,WEST 125 STREET,10027,9293766772,Other
50075461,POPEYES,Manhattan,2300,ADAM CLAYTON POWELL JR BOULEVARD,,6463689765,Chicken
50158730,MAKI,Manhattan,3208,BROADWAY,10027,9172168812,Japanese
50065197,BAJEKO SEKUWA,Queens,4316,QUEENS BLVD,11104,3478088100,Asian/Asian Fusion
50160092,PASTASOLE,Manhattan,192,1 AVENUE,10009,9295034272,Italian
41519688,TOASTIES,Manhattan,148,WEST 49 STREET,10019,2123984900,American
50105373,CAFE DE OLLA,Queens,3807,BROADWAY,11103,3479329636,Mexican
50106365,MAYA'S SNACK BAR JACKSON HEIGHTS,Queens,9511,35TH AVE,11372,7183090455,Frozen Desserts
50064436,MR. FULTON,Brooklyn,156A,LAWRENCE STREET,11201,7185223950,American
50107403,WINGSTOP,Manhattan,4051,BROADWAY,10032,9089107567,Chicken
50063834,AVIATOR GRILL AT INTREPID,Manhattan,1,INTREPID SQ,,3472208442,American
50127492,FAMOUS 1 DOLLAR PIZZA,Manhattan,578A,9 AVENUE,10036,5513581106,Pizza
50139652,DOMINICAN FOOD,Staten Island,2180,FOREST AVENUE,10303,7184424616,Spanish
40949905,KA WAH BAKERY,Manhattan,9,ELDRIDGE STREET,10002,2122260133,Chinese
50033252,MARIO'S PIZZA,Brooklyn,940,MANHATTAN AVENUE,11222,7183492700,Pizza
50103023,SUSHI STAR,Manhattan,462,9 AVENUE,10018,2122791010,Japanese
50131346,ZHONG YUE RESTAURANT,Queens,8610,JUSTICE AVE,11373,9296885856,Chinese
50131738,XING FU TANG (EDGE building),Manhattan,20,HUDSON YARDS,10001,3322666887,Coffee/Tea
50044623,BAR,Manhattan,4,PENN PLZ,10121,2124656307,Other
50155845,MALAYSIA BEEF JERKY INC,Manhattan,59,MOTT STREET,10013,2129650796,Asian/Asian Fusion
50137300,BARK BARBECUE,Brooklyn,55,WATER STREET,11201,3478815799,Barbecue
50017406,LECHE Y MIEL RESTAURANT,Bronx,5761,BROADWAY,10463,7187085787,Latin American
50124448,GU XIANG WEI RESTAURANT,Queens,4247,MAIN ST,11355,9172871518,Chinese
40369641,JOHNNY'S REEF RESTAURANT,Bronx,2,CITY ISLAND AVENUE,10464,7188852086,Seafood
50164407,MONTE HOREB DELI & GROCERY,Brooklyn,7409,13 AVENUE,11228,3474920644,Latin American
50018288,OOTOYA,Manhattan,41,EAST 11 STREET,10003,2124734300,Japanese
50098773,MCDONALD'S,Brooklyn,606,NEPTUNE AVENUE,11224,7189961029,Hamburgers
50083864,DIM SUM PALACE,Manhattan,59,2 AVENUE,10003,6464768846,Chinese
50160793,ISTANBLUE KEBAB HOUSE,Brooklyn,1409,KINGS HIGHWAY,11229,9144000056,Mediterranean
50073545,PORTOFINO CAFE,Bronx,2008,WILLIAMSBRIDGE ROAD,10461,6462660713,Bottled Beverages
50140840,SAKE RESTAURANT,Brooklyn,2347,86 STREET,11214,7189966288,Japanese
50088490,EL TAMALITO,Bronx,531,EAST 138 STREET,10454,7189752146,Mexican
50128802,CHIPOTLE MEXICAN GRILL,Brooklyn,1190,FULTON STREET,11216,7189424838,Tex-Mex
50091227,OLE & STEEN,Manhattan,111,EAST 48 STREET,10017,9292091544,American
50000946,FRONT PAGE RESTAURANT,Bronx,4002,BRONXWOOD AVENUE,10466,9292223030,Caribbean
50074193,ESTRELLA BRONX RESTAURANT,Bronx,2051,WEBSTER AVENUE,10457,7183290166,Latin American
50135958,GOLD COFFEE,Manhattan,491,3 AVENUE,10016,9144338100,Coffee/Tea
50045763,FERRIS WHEEL YOGURT SMOOTHIES,Staten Island,8,FERRY TERMINAL DR,10301,7187203520,American
41149373,EMPIRE SZECHUAN KYOTO,Manhattan,193,COLUMBUS AVENUE,10023,2124968778,Chinese/Japanese
41177892,LAKE COMO PIZZA,Manhattan,2549,AMSTERDAM AVENUE,10033,2127400110,Jewish/Kosher
50077336,EL ENCANTO DE LOLA 2,Manhattan,175,LENOX AVENUE,10026,3472776419,Mexican
40513184,ACE BAR,Manhattan,531,EAST 5 STREET,10009,2129798476,American
50047927,MAKANA,Manhattan,2245,1 AVENUE,10029,2129963534,Hawaiian
40791157,LA PIAZZA PIZZERIA & RESTAURANT,Staten Island,1445,RICHMOND AVENUE,10314,7183700707,Pizza
50113413,FOOTPRINTS,Brooklyn,588,NOSTRAND AVENUE,11216,3473516364,Caribbean
50140170,IMASA NORI,Manhattan,243,WEST 54 STREET,10019,6465231766,Japanese
50069329,ROGERS,Queens,203,BEACH 116 STREET,11694,7186343263,American
50089236,BREUKLYN TEQUILA,Brooklyn,1177,BEDFORD AVENUE,11216,3473896389,Mexican
50087839,JOYFACE,Manhattan,104,AVENUE C,10009,2013102281,Bottled Beverages
50142490,ROYAL GARDEN TBILISH,Brooklyn,230,KINGS HIGHWAY,11223,3473315559,Eastern European
50153738,LA LECHONERA CRIOLLA RESTAURANT & SEAFOOD,Bronx,1439,EDWARD L GRANT HIGHWAY,10452,3478624699,Latin American
50107335,EL CANGREJAL RESTAURANT,Queens,10011,37TH AVE,11368,7186512425,Latin American
50112865,HAN BIN YUAN,Queens,3714,MAIN ST,11354,9292007078,Asian/Asian Fusion
41293756,STARLIGHT GRILL RESTAURANT & SWEETS,Queens,8002,ASTORIA BOULEVARD,11370,7185058800,Pakistani
50127633,BRISA MARINA RESTAURANT,Brooklyn,1450,MYRTLE AVENUE,11237,3477794994,Spanish
50152245,KENNEDY CHICKEN,Manhattan,85-87,PITT ST,10002,6463603732,Chicken
50065564,THE PUBLIC NEW YORK,Manhattan,215,CHRYSTIE STREET,10002,2127356000,American
50159802,JADE LOUNGE CORP,Bronx,102,EAST 183 STREET,10453,6467268906,Other
50055882,GARDENIA TERRACE,Manhattan,826,10 AVENUE,10019,2123340489,Mediterranean
50134796,GINJAN CAFE,Manhattan,85,EAST 125 STREET,10035,9292489696,Coffee/Tea
50136061,LA CREPARIS,Manhattan,800,WEST 187 STREET,10033,6466840185,French
41379215,POLLOS MARIO WOODHAVEN,Queens,6320,WOODHAVEN BOULEVARD,11374,7185652055,Latin American
40400453,CAFE EIGHTY TWO,Manhattan,2282,BROADWAY,10024,2128758373,American
41668500,SUNSHINE RESTAURANT,Queens,25509,HILLSIDE AVENUE,11004,7183432300,Indian
50072803,PANDA KITCHEN,Queens,14611,ROCKAWAY BLVD,11436,7183223446,Chinese
50001168,CHINA KING,Bronx,1213,EAST 233 STREET,10466,7189946809,Chinese
50153033,DAILY PROVISIONS,Manhattan,1381,MADISON AVENUE,10029,6467475353,American
41630064,"DUNKIN',' BASKIN ROBBINS",Queens,8347,PARSONS BOULEVARD,11432,7185269690,Donuts
50075450,NO.1 CALLE 191 PESCADERIA,Manhattan,1609,SAINT NICHOLAS AVENUE,10040,6462493074,Seafood
50007352,CHAMBERS,Manhattan,94,CHAMBERS STREET,10007,2125803572,American
50053225,TEMPLE COURT EVENTS KITCHEN,Manhattan,5,BEEKMAN STREET,10038,2127800880,New American
50134859,PLAYA BOWLS,Manhattan,1350,BROADWAY,10018,9144627137,"Juice, Smoothies, Fruit Salads"
50089916,BAGEL NEST,Brooklyn,1237,FULTON STREET,11216,7188727545,American
50049766,SCHILLING,Manhattan,109,WASHINGTON STREET,10006,2124061200,German
50136410,$1.50 FRESH PIZZA,Manhattan,1723,BROADWAY,10019,7189125126,Pizza
50158026,ST KILDA COFFEE,Manhattan,374,WEST 46 STREET,10036,3472605056,Coffee/Tea
50125080,NAIJA BAR & GRILL,Staten Island,1144,HYLAN BOULEVARD,10305,9173923212,African
50097138,IHOP,Bronx,5645,BROADWAY,10463,7186547186,Pancakes/Waffles
50110163,MOGE TEE,Queens,7015,AUSTIN ST,11375,3474718511,Coffee/Tea
50102671,GRAND SEAPORT BUFFET,Brooklyn,2027,EMMONS AVENUE,11235,9179167378,Chinese
50060415,JOE & THE JUICE,Manhattan,67,SPRING STREET,10012,9175665727,Coffee/Tea
50124121,PATIS,Manhattan,676,AMSTERDAM AVENUE,10025,6464498730,Jewish/Kosher
50101595,ROBERTO'S GOURMET KITCHEN,Staten Island,2048,VICTORY BOULEVARD,10314,7185247530,Italian
50105379,LE PAIN QUOTIDIEN,Manhattan,1399,MADISON AVENUE,10029,6466633149,Coffee/Tea
50114016,BALLER CHILL SPOT,Brooklyn,3202,CHURCH AVENUE,11226,3476273159,American
40394761,E & L BAKERY & COFFEE SHOP,Bronx,4202,WHITE PLAINS ROAD,10466,7183248152,Bakery Products/Desserts
50122796,DILBAR INDIAN CUISINE,Queens,24808,UNION TPKE,11426,6465002057,Indian
50131124,ROKSTAR CHICKEN,Manhattan,201,EAST 125 STREET,10035,9178928859,Korean
50069194,El Chalaco,Queens,11017,JAMAICA AVE,11418,7184410131,Peruvian
50161136,LAS BANDERAS MEXICAN GRILL,Brooklyn,1641,MCDONALD AVENUE,11230,7183762364,Mexican
41654555,NEW KING WOK RESTAURANT,Manhattan,2025,7 AVENUE,10027,2122222868,Chinese
50124939,GANDA SUSHI,Queens,8008,SURREY PL,11432,6467061421,Korean
41490282,LE PARISIEN,Manhattan,163,EAST 33 STREET,10016,2128895489,French
50130412,PLUG & UGLIES,Manhattan,1495,1 AVENUE,10075,9175750469,American
50102329,MELTING POT CUISINE,Brooklyn,685,BROADWAY,11206,3478449004,Caribbean
50083250,THE GOAT,Queens,4317,QUEENS BLVD,11104,7187299900,American
50119795,M LOUNGE RESTAURANT,Bronx,2362,JEROME AVENUE,10468,3473408973,Latin American
50171293,OUR FAMILY CAFE,Brooklyn,4604,3 AVENUE,11220,7187883850,Latin American
50138853,TACOS EL COYOTE RESTAURANT,Bronx,1320A,JEROME AVENUE,10452,6467026692,Mexican
50138270,MEEM SPICY GROCERY AND DELI,Manhattan,160,EAST 28 STREET,10016,6462179551,Bangladeshi
50145249,GONG FU XIAO LONG BAO,Brooklyn,6020,8 AVENUE,11220,9172887588,Chinese
50088652,THE OLIVE GARDEN ITALIAN RESTAURANT,Brooklyn,1684,SHORE PARKWAY,11214,7182651019,Italian
50162047,TORTILLERIA GUADALUPE & TAQUERIA,Brooklyn,5605,5 AVENUE,11220,3473557336,Mexican
50056450,K & V BAKERY,Brooklyn,1405,AVENUE U,11229,7186270986,Bakery Products/Desserts
50105213,FITRITION,Queens,2803,ASTORIA BLVD,11102,6462830401,"Juice, Smoothies, Fruit Salads"
40986218,GREEN SYMPHONY,Manhattan,255,WEST 43 STREET,10036,2123914747,American
50129516,79 AMIGO BAR,Queens,7916,ROOSEVELT AVE,11372,8435353333,Latin American
50125014,NENES TAQUERIA,Brooklyn,660,DEGRAW STREET,11217,3478815073,Latin American
50006350,NEW GYRO KING,Staten Island,1267,FOREST AVENUE,10302,7185247875,Mediterranean
50009411,DELICIAS CALENAS #4,Queens,9418,SUTPHIN BLVD,11435,7182062262,Spanish
50112918,SOFRITO AL PUNTO RESTAURANT,Brooklyn,6420,17 AVENUE,11204,7186214000,Spanish
50116972,TAVERNA KYCLADES,Queens,3601,DITMARS BLVD,11105,7185458666,Greek
41718493,ON TRACK BAR (O.T.B.),Brooklyn,141,BROADWAY,11211,2014868830,American
50123613,ANDO PATISSERIE,Manhattan,214,EAST 10 STREET,10003,9172620311,Bakery Products/Desserts
50085121,KABABISH,Queens,7064,BROADWAY,11372,7185655131,Pakistani
50114363,DK PUBLIC,Queens,3840,29TH ST,11101,7182197010,American
50130469,LITTLE SOUP DUMPLING,Queens,25220,NORTHERN BLVD,11362,7182251178,Chinese
50132764,BLAZIN CHICKEN & GYRO,Bronx,16,EAST 167 STREET,10452,3474312773,Chicken
50163731,ISOHAMA,Manhattan,1666,3 AVENUE,10128,2128280099,Japanese
